{"type": "FeatureCollection", "features": [ {"type": "Feature", "properties": {"norad_id": 29808, "name": "FENGYUN 1C DEB", "group": "fengyun-1c-debris", "lat": -3.3603665200154804, "lon": -96.71208908560638, "alt_km": 509.3636548195773, "timestamp": "2025-12-10T18:57:00.336953+00:00", "meta": {"OBJECT_NAME": "FENGYUN 1C DEB", "OBJECT_ID": "1999-025DA", "EPOCH": "2025-12-10T06:53:45.056256", "MEAN_MOTION": 15.20012558, "ECCENTRICITY": 0.0018441, "INCLINATION": 99.0144, "RA_OF_ASC_NODE": 262.1543, "ARG_OF_PERICENTER": 94.6945, "MEAN_ANOMALY": 35.1505, "EPHEMERIS_TYPE": 0, "CLASSIFICATION_TYPE": "U", "NORAD_CAT_ID": 29808, "ELEMENT_SET_NO": 999, "REV_AT_EPOCH": 98188, "BSTAR": 0.019081, "MEAN_MOTION_DOT": 0.00437584, "MEAN_MOTION_DDOT": 0}, "tle": {"line1": "1 29808U 99025DA  25344.28732704  .00437584  00000+0  19081-1 0  9993", "line2": "2 29808  99.0144 262.1543 0018441  94.6945  35.1505 15.20012558981886"}}, "geometry": {"type": "Point", "coordinates": [-96.71208908560638, -3.3603665200154804]}}, {"type": "Feature", "properties": {"norad_id": 29809, "name": "FENGYUN 1C DEB", "group": "fengyun-1c-debris", "lat": 77.77749121757157, "lon": -97.81852671572692, "alt_km": 722.3581893773253, "timestamp": "2025-12-10T18:57:00.336963+00:00", "meta": {"OBJECT_NAME": "FENGYUN 1C DEB", "OBJECT_ID": "1999-025DB", "EPOCH": "2025-12-10T10:51:01.807200", "MEAN_MOTION": 14.46580793, "ECCENTRICITY": 0.0116288, "INCLINATION": 98.8599, "RA_OF_ASC_NODE": 307.8889, "ARG_OF_PERICENTER": 356.8754, "MEAN_ANOMALY": 126.8677, "EPHEMERIS_TYPE": 0, "CLASSIFICATION_TYPE": "U", "NORAD_CAT_ID": 29809, "ELEMENT_SET_NO": 999, "REV_AT_EPOCH": 99434, "BSTAR": 0.00063683, "MEAN_MOTION_DOT": 2.444e-05, "MEAN_MOTION_DDOT": 0}, "tle": {"line1": "1 29809U 99025DB  25344.45210425  .00002444  00000+0  63683-3 0  9996", "line2": "2 29809  98.8599 307.8889 0116288 356.8754 126.8677 14.46580793994348"}}, "geometry": {"type": "Point", "coordinates": [-97.81852671572692, 77.77749121757157]}}, {"type": "Feature", "properties": {"norad_id": 29810, "name": "FENGYUN 1C DEB", "group": "fengyun-1c-debris", "lat": -45.04481444854535, "lon": -167.8446742330431, "alt_km": 846.151770742681, "timestamp": "2025-12-10T18:57:00.336973+00:00", "meta": {"OBJECT_NAME": "FENGYUN 1C DEB", "OBJECT_ID": "1999-025DC", "EPOCH": "2025-12-10T08:05:54.255264", "MEAN_MOTION": 14.291248, "ECCENTRICITY": 0.0067046, "INCLINATION": 99.2069, "RA_OF_ASC_NODE": 21.027, "ARG_OF_PERICENTER": 25.8881, "MEAN_ANOMALY": 35.1406, "EPHEMERIS_TYPE": 0, "CLASSIFICATION_TYPE": "U", "NORAD_CAT_ID": 29810, "ELEMENT_SET_NO": 999, "REV_AT_EPOCH": 98343, "BSTAR": 0.00039703, "MEAN_MOTION_DOT": 9.83e-06, "MEAN_MOTION_DDOT": 0}, "tle": {"line1": "1 29810U 99025DC  25344.33743351  .00000983  00000+0  39703-3 0  9996", "line2": "2 29810  99.2069  21.0270 0067046  25.8881  35.1406 14.29124800983431"}}, "geometry": {"type": "Point", "coordinates": [-167.8446742330431, -45.04481444854535]}}, {"type": "Feature", "properties": {"norad_id": 29812, "name": "FENGYUN 1C DEB", "group": "fengyun-1c-debris", "lat": -65.00195372071539, "lon": -167.8516754184171, "alt_km": 812.63472194115, "timestamp": "2025-12-10T18:57:00.336983+00:00", "meta": {"OBJECT_NAME": "FENGYUN 1C DEB", "OBJECT_ID": "1999-025DE", "EPOCH": "2025-12-07T01:05:47.261760", "MEAN_MOTION": 14.01959129, "ECCENTRICITY": 0.01444592, "INCLINATION": 98.3498, "RA_OF_ASC_NODE": 170.3581, "ARG_OF_PERICENTER": 343.8427, "MEAN_ANOMALY": 145.6696, "EPHEMERIS_TYPE": 0, "CLASSIFICATION_TYPE": "U", "NORAD_CAT_ID": 29812, "ELEMENT_SET_NO": 999, "REV_AT_EPOCH": 96092, "BSTAR": 0.0016935691, "MEAN_MOTION_DOT": 2.789e-05, "MEAN_MOTION_DDOT": 0}, "tle": {"line1": "1 29812U 99025DE  25341.04568590  .00002789  00000+0  16936-2 0  9991", "line2": "2 29812  98.3498 170.3581 0144459 343.8427 145.6696 14.01959129960922"}}, "geometry": {"type": "Point", "coordinates": [-167.8516754184171, -65.00195372071539]}}, {"type": "Feature", "properties": {"norad_id": 29813, "name": "FENGYUN 1C DEB", "group": "fengyun-1c-debris", "lat": -51.304159200918676, "lon": 173.65388501129894, "alt_km": 859.6597677857189, "timestamp": "2025-12-10T18:57:00.336993+00:00", "meta": {"OBJECT_NAME": "FENGYUN 1C DEB", "OBJECT_ID": "1999-025DF", "EPOCH": "2025-12-10T07:43:31.193184", "MEAN_MOTION": 14.09450179, "ECCENTRICITY": 0.0011749, "INCLINATION": 98.7277, "RA_OF_ASC_NODE": 4.2567, "ARG_OF_PERICENTER": 229.1867, "MEAN_ANOMALY": 151.0885, "EPHEMERIS_TYPE": 0, "CLASSIFICATION_TYPE": "U", "NORAD_CAT_ID": 29813, "ELEMENT_SET_NO": 999, "REV_AT_EPOCH": 97226, "BSTAR": 6.2876e-05, "MEAN_MOTION_DOT": 6.7e-07, "MEAN_MOTION_DDOT": 0}, "tle": {"line1": "1 29813U 99025DF  25344.32188881  .00000067  00000+0  62876-4 0  9990", "line2": "2 29813  98.7277   4.2567 0011749 229.1867 151.0885 14.09450179972260"}}, "geometry": {"type": "Point", "coordinates": [173.65388501129894, -51.304159200918676]}}, {"type": "Feature", "properties": {"norad_id": 29815, "name": "FENGYUN 1C DEB", "group": "fengyun-1c-debris", "lat": -10.477296883197887, "lon": 171.8477581475431, "alt_km": 599.2171678730101, "timestamp": "2025-12-10T18:57:00.337003+00:00", "meta": {"OBJECT_NAME": "FENGYUN 1C DEB", "OBJECT_ID": "1999-025DH", "EPOCH": "2025-12-10T11:31:59.132064", "MEAN_MOTION": 14.63689426, "ECCENTRICITY": 0.0183936, "INCLINATION": 98.0562, "RA_OF_ASC_NODE": 353.0464, "ARG_OF_PERICENTER": 142.2941, "MEAN_ANOMALY": 219.132, "EPHEMERIS_TYPE": 0, "CLASSIFICATION_TYPE": "U", "NORAD_CAT_ID": 29815, "ELEMENT_SET_NO": 999, "REV_AT_EPOCH": 99822, "BSTAR": 0.00070001, "MEAN_MOTION_DOT": 4.608e-05, "MEAN_MOTION_DDOT": 0}, "tle": {"line1": "1 29815U 99025DH  25344.48054551  .00004608  00000+0  70001-3 0  9998", "line2": "2 29815  98.0562 353.0464 0183936 142.2941 219.1320 14.63689426998222"}}, "geometry": {"type": "Point", "coordinates": [171.8477581475431, -10.477296883197887]}}, {"type": "Feature", "properties": {"norad_id": 29816, "name": "FENGYUN 1C DEB", "group": "fengyun-1c-debris", "lat": 49.99129903039699, "lon": 35.54804702393093, "alt_km": 637.3833695959438, "timestamp": "2025-12-10T18:57:00.337013+00:00", "meta": {"OBJECT_NAME": "FENGYUN 1C DEB", "OBJECT_ID": "1999-025DJ", "EPOCH": "2025-12-10T03:57:24.704064", "MEAN_MOTION": 14.44252892, "ECCENTRICITY": 0.02377396, "INCLINATION": 98.9928, "RA_OF_ASC_NODE": 204.0122, "ARG_OF_PERICENTER": 184.7969, "MEAN_ANOMALY": 300.2067, "EPHEMERIS_TYPE": 0, "CLASSIFICATION_TYPE": "U", "NORAD_CAT_ID": 29816, "ELEMENT_SET_NO": 999, "REV_AT_EPOCH": 98150, "BSTAR": 0.0013644314, "MEAN_MOTION_DOT": 6.573e-05, "MEAN_MOTION_DDOT": 0}, "tle": {"line1": "1 29816U 99025DJ  25344.16486926  .00006573  00000+0  13644-2 0  9991", "line2": "2 29816  98.9928 204.0122 0237739 184.7969 300.2067 14.44252892981501"}}, "geometry": {"type": "Point", "coordinates": [35.54804702393093, 49.99129903039699]}}, {"type": "Feature", "properties": {"norad_id": 29817, "name": "FENGYUN 1C DEB", "group": "fengyun-1c-debris", "lat": -75.7325086506597, "lon": 10.378592745022045, "alt_km": 853.6399735777195, "timestamp": "2025-12-10T18:57:00.337023+00:00", "meta": {"OBJECT_NAME": "FENGYUN 1C DEB", "OBJECT_ID": "1999-025DK", "EPOCH": "2025-12-10T11:23:26.684160", "MEAN_MOTION": 14.14247789, "ECCENTRICITY": 0.0012407, "INCLINATION": 98.5574, "RA_OF_ASC_NODE": 333.7696, "ARG_OF_PERICENTER": 21.8506, "MEAN_ANOMALY": 97.0542, "EPHEMERIS_TYPE": 0, "CLASSIFICATION_TYPE": "U", "NORAD_CAT_ID": 29817, "ELEMENT_SET_NO": 999, "REV_AT_EPOCH": 97363, "BSTAR": 0.00049281, "MEAN_MOTION_DOT": 8.99e-06, "MEAN_MOTION_DDOT": 0}, "tle": {"line1": "1 29817U 99025DK  25344.47461440  .00000899  00000+0  49281-3 0  9992", "line2": "2 29817  98.5574 333.7696 0012407  21.8506  97.0542 14.14247789973632"}}, "geometry": {"type": "Point", "coordinates": [10.378592745022045, -75.7325086506597]}}, {"type": "Feature", "properties": {"norad_id": 29818, "name": "FENGYUN 1C DEB", "group": "fengyun-1c-debris", "lat": 80.4568664632433, "lon": 156.24684373930282, "alt_km": 821.9351309491713, "timestamp": "2025-12-10T18:57:00.337033+00:00", "meta": {"OBJECT_NAME": "FENGYUN 1C DEB", "OBJECT_ID": "1999-025DL", "EPOCH": "2025-12-10T05:24:39.297312", "MEAN_MOTION": 14.04498852, "ECCENTRICITY": 0.0115414, "INCLINATION": 98.7215, "RA_OF_ASC_NODE": 221.6377, "ARG_OF_PERICENTER": 32.8822, "MEAN_ANOMALY": 81.3919, "EPHEMERIS_TYPE": 0, "CLASSIFICATION_TYPE": "U", "NORAD_CAT_ID": 29818, "ELEMENT_SET_NO": 999, "REV_AT_EPOCH": 96774, "BSTAR": 0.00022921, "MEAN_MOTION_DOT": 3.46e-06, "MEAN_MOTION_DDOT": 0}, "tle": {"line1": "1 29818U 99025DL  25344.22545483  .00000346  00000+0  22921-3 0  9995", "line2": "2 29818  98.7215 221.6377 0115414  32.8822  81.3919 14.04498852967740"}}, "geometry": {"type": "Point", "coordinates": [156.24684373930282, 80.4568664632433]}}, {"type": "Feature", "properties": {"norad_id": 29819, "name": "FENGYUN 1C DEB", "group": "fengyun-1c-debris", "lat": -34.47087559742878, "lon": 142.5555820075393, "alt_km": 1001.4873631507799, "timestamp": "2025-12-10T18:57:00.337043+00:00", "meta": {"OBJECT_NAME": "FENGYUN 1C DEB", "OBJECT_ID": "1999-025DM", "EPOCH": "2025-12-10T11:39:02.656224", "MEAN_MOTION": 14.02190868, "ECCENTRICITY": 0.0191496, "INCLINATION": 98.7315, "RA_OF_ASC_NODE": 328.3204, "ARG_OF_PERICENTER": 73.3597, "MEAN_ANOMALY": 45.7041, "EPHEMERIS_TYPE": 0, "CLASSIFICATION_TYPE": "U", "NORAD_CAT_ID": 29819, "ELEMENT_SET_NO": 999, "REV_AT_EPOCH": 96588, "BSTAR": 0.00061572, "MEAN_MOTION_DOT": 1.066e-05, "MEAN_MOTION_DDOT": 0}, "tle": {"line1": "1 29819U 99025DM  25344.48544741  .00001066  00000+0  61572-3 0  9995", "line2": "2 29819  98.7315 328.3204 0191496  73.3597  45.7041 14.02190868965886"}}, "geometry": {"type": "Point", "coordinates": [142.5555820075393, -34.47087559742878]}}]}